NORAD_CAT_ID,OBJECT_NAME,OBJECT_TYPE,EPOCH,MEAN_MOTION,ECCENTRICITY,INCLINATION,RA_OF_ASC_NODE,ARG_OF_PERICENTER,MEAN_ANOMALY,BSTAR,MEAN_MOTION_DOT,MEAN_MOTION_DDOT,TLE_LINE0,TLE_LINE1,TLE_LINE2,SEMIMAJOR_AXIS,PERIOD,APOGEE,PERIGEE,DECAYED
54810.0,STARLINK-5408,PAYLOAD,2023-03-26 13:07:12,15.08851314,0.0001482,53.2169,188.7086,87.7532,272.363,-0.00046164,-7.63e-05,0.0,0 STARLINK-5408,1 54810U 22175BE  23085.54667555 -.00007630  00000-0 -46164-3 0  9998,2 54810  53.2169 188.7086 0001482  87.7532 272.3630 15.08851314 15129,6917.846,95.437,540.736,538.686,0.0
54810.0,STARLINK-5408,PAYLOAD,2023-03-27 12:57:59,15.08836518,0.0001809,53.2181,184.2468,94.4577,265.6622,0.00021011,3.057e-05,0.0,0 STARLINK-5408,1 54810U 22175BE  23086.54026686  .00003057  00000-0  21011-3 0  9994,2 54810  53.2181 184.2468 0001809  94.4577 265.6622 15.08836518 17436,6917.891,95.438,541.007,538.505,0.0
54810.0,STARLINK-5408,PAYLOAD,2023-03-27 17:44:07,15.08850426,0.0001767,53.2179,183.3514,107.7004,252.4181,0.00026487,3.931e-05,0.0,0 STARLINK-5408,1 54810U 22175BE  23086.73897495  .00003931  00000-0  26487-3 0  9992,2 54810  53.2179 183.3514 0001767 107.7004 252.4181 15.08850426 15303,6917.849,95.437,540.936,538.491,0.0
54810.0,STARLINK-5408,PAYLOAD,2023-03-28 12:48:46,15.08836794,0.0001768,53.2182,179.7811,110.3952,249.723,5.9768e-06,-1.93e-06,0.0,0 STARLINK-5408,1 54810U 22175BE  23087.53387561 -.00000193  00000-0  59768-5 0  9997,2 54810  53.2182 179.7811 0001768 110.3952 249.7230 15.08836794 15428,6917.89,95.438,540.978,538.532,0.0
54810.0,STARLINK-5408,PAYLOAD,2023-03-28 17:34:55,15.08851075,0.0001436,53.2173,178.8931,108.4304,251.6844,0.00015078,2.113e-05,0.0,0 STARLINK-5408,1 54810U 22175BE  23087.73258116  .00002113  00000-0  15078-3 0  9999,2 54810  53.2173 178.8931 0001436 108.4304 251.6844 15.08851075 15457,6917.847,95.437,540.705,538.718,0.0
54810.0,STARLINK-5408,PAYLOAD,2023-03-29 12:39:33,15.08848163,0.0001787,53.2182,175.3196,117.2012,242.9162,-0.00012785,-2.323e-05,0.0,0 STARLINK-5408,1 54810U 22175BE  23088.52747350 -.00002323  00000-0 -12785-3 0  9997,2 54810  53.2182 175.3196 0001787 117.2012 242.9162 15.08848163 15578,6917.855,95.437,540.957,538.484,0.0
54810.0,STARLINK-5408,PAYLOAD,2023-03-29 17:25:42,15.08855196,0.000177,53.2182,174.4258,125.5948,234.5209,-7.1776e-05,-1.431e-05,0.0,0 STARLINK-5408,1 54810U 22175BE  23088.72618468 -.00001431  00000-0 -71776-4 0  9991,2 54810  53.2182 174.4258 0001770 125.5948 234.5209 15.08855196 15606,6917.834,95.437,540.923,538.474,0.0
54810.0,STARLINK-5408,PAYLOAD,2023-03-30 04:33:26,15.08823132,0.0001263,53.2182,172.3508,91.178,268.9357,-5.7529e-05,-1.203e-05,0.0,0 STARLINK-5408,1 54810U 22175BE  23089.18988676 -.00001203  00000-0 -57529-4 0  9990,2 54810  53.2182 172.3508 0001263  91.1780 268.9357 15.08823132 15677,6917.932,95.439,540.671,538.923,0.0
54810.0,STARLINK-5408,PAYLOAD,2023-03-30 12:30:20,15.08851883,0.0001181,53.2174,170.8644,91.748,268.3647,-1.5719e-05,-5.38e-06,0.0,0 STARLINK-5408,1 54810U 22175BE  23089.52106796 -.00000538  00000-0 -15719-4 0  9998,2 54810  53.2174 170.8644 0001181  91.7480 268.3647 15.08851883 15720,6917.844,95.437,540.526,538.892,0.0
54810.0,STARLINK-5408,PAYLOAD,2023-03-31 04:24:12,15.08842846,0.0001772,53.2178,167.8933,56.8872,303.229,-0.00012781,-2.322e-05,0.0,0 STARLINK-5408,1 54810U 22175BE  23090.18347447 -.00002322  00000-0 -12781-3 0  9990,2 54810  53.2178 167.8933 0001772  56.8872 303.2290 15.08842846 15827,6917.872,95.437,540.963,538.511,0.0
54810.0,STARLINK-5408,PAYLOAD,2023-03-31 12:21:06,15.08852826,0.0001549,53.2182,166.4045,80.2612,279.8555,0.00012462,1.697e-05,0.0,0 STARLINK-5408,1 54810U 22175BE  23090.51466154  .00001697  00000-0  12462-3 0  9992,2 54810  53.2182 166.4045 0001549  80.2612 279.8555 15.08852826 15872,6917.841,95.437,540.778,538.635,0.0
54810.0,STARLINK-5408,PAYLOAD,2023-03-31 15:31:51,15.08863294,0.00013,53.2176,165.8058,96.7628,263.3512,0.00019376,2.799e-05,0.0,0 STARLINK-5408,1 54810U 22175BE  23090.64712931  .00002799  00000-0  19376-3 0  9998,2 54810  53.2176 165.8058 0001300  96.7628 263.3512 15.08863294 15890,6917.809,95.436,540.574,538.775,0.0
54810.0,STARLINK-5408,PAYLOAD,2023-03-31 21:53:27,15.08830286,0.0001282,53.2173,164.6212,87.6512,272.4627,-0.00022329,-3.839e-05,0.0,0 STARLINK-5408,1 54810U 22175BE  23090.91212357 -.00003839  00000-0 -22329-3 0  9995,2 54810  53.2173 164.6212 0001282  87.6512 272.4627 15.08830286 15934,6917.91,95.438,540.662,538.888,0.0
54810.0,STARLINK-5408,PAYLOAD,2023-04-01 12:11:56,15.08821622,0.0001392,53.2177,161.9439,88.1004,272.0148,-0.00017827,-3.122e-05,0.0,0 STARLINK-5408,1 54810U 22175BE  23091.50829438 -.00003122  00000-0 -17827-3 0  9997,2 54810  53.2177 161.9439 0001392  88.1004 272.0148 15.08821622 16022,6917.937,95.439,540.765,538.839,0.0
54810.0,STARLINK-5408,PAYLOAD,2023-04-01 16:58:05,15.0882949,0.0001498,53.2176,161.0505,92.1204,267.996,-0.00012322,-2.248e-05,0.0,0 STARLINK-5408,1 54810U 22175BE  23091.70700876 -.00002248  00000-0 -12322-3 0  9996,2 54810  53.2176 161.0505 0001498  92.1204 267.9960 15.08829490 16059,6917.913,95.438,540.814,538.741,0.0
54810.0,STARLINK-5408,PAYLOAD,2023-04-01 21:44:14,15.0883683,0.0001397,53.2174,160.1591,91.1588,268.9565,-0.00014648,-2.618e-05,0.0,0 STARLINK-5408,1 54810U 22175BE  23091.90572530 -.00002618  00000-0 -14648-3 0  9996,2 54810  53.2174 160.1591 0001397  91.1588 268.9565 15.08836830 18245,6917.89,95.438,540.722,538.789,0.0
54810.0,STARLINK-5408,PAYLOAD,2023-04-02 12:02:41,15.08858131,0.00014,53.2176,157.4826,97.5393,262.5758,-9.7516e-05,-1.84e-05,0.0,0 STARLINK-5408,1 54810U 22175BE  23092.50187013 -.00001840  00000-0 -97516-4 0  9993,2 54810  53.2176 157.4826 0001400  97.5393 262.5758 15.08858131 16178,6917.825,95.436,540.658,538.721,0.0
54810.0,STARLINK-5408,PAYLOAD,2023-04-02 13:38:04,15.08855906,0.000143,53.2176,157.1839,89.8761,270.2395,-6.0754e-06,-3.85e-06,0.0,0 STARLINK-5408,1 54810U 22175BE  23092.56810843 -.00000385  00000-0 -60754-5 0  9991,2 54810  53.2176 157.1839 0001430  89.8761 270.2395 15.08855906 18346,6917.832,95.437,540.686,538.708,0.0
54810.0,STARLINK-5408,PAYLOAD,2023-04-02 21:35:01,15.0883814,4.32e-05,53.217,155.7005,90.1578,269.9464,-0.00023286,-3.991e-05,0.0,0 STARLINK-5408,1 54810U 22175BE  23092.89932118 -.00003991  00000-0 -23286-3 0  9990,2 54810  53.2170 155.7005 0000432  90.1578 269.9464 15.08838140 18399,6917.886,95.438,540.05,539.452,0.0
54810.0,STARLINK-5408,PAYLOAD,2023-04-03 13:28:52,15.0883511,0.0001326,53.2175,152.7232,92.7681,267.3463,8.5543e-05,1.074e-05,0.0,0 STARLINK-5408,1 54810U 22175BE  23093.56172152  .00001074  00000-0  85543-4 0  9992,2 54810  53.2175 152.7232 0001326  92.7681 267.3463 15.08835110 18495,6917.895,95.438,540.678,538.843,0.0
54810.0,STARLINK-5408,PAYLOAD,2023-04-03 15:04:15,15.0883854,0.0001369,53.2178,152.4265,90.9075,269.2074,0.00011411,1.529e-05,0.0,0 STARLINK-5408,1 54810U 22175BE  23093.62795849  .00001529  00000-0  11411-3 0  9990,2 54810  53.2178 152.4265 0001369  90.9075 269.2074 15.08838540 16346,6917.885,95.438,540.697,538.803,0.0
54810.0,STARLINK-5408,PAYLOAD,2023-04-04 10:08:52,15.08854961,0.0001202,53.2169,148.8608,99.0135,261.0993,-3.9824e-05,-9.22e-06,0.0,0 STARLINK-5408,1 54810U 22175BE  23094.42283350 -.00000922  00000-0 -39824-4 0  9995,2 54810  53.2169 148.8608 0001202  99.0135 261.0993 15.08854961 16467,6917.835,95.437,540.531,538.868,0.0
54810.0,STARLINK-5408,PAYLOAD,2023-04-04 14:55:01,15.08857653,0.0001346,53.2171,147.964,107.1822,252.9317,1.2072e-05,-9.6e-07,0.0,0 STARLINK-5408,1 54810U 22175BE  23094.62154700 -.00000096  00000-0  12072-4 0  9990,2 54810  53.2171 147.9640 0001346 107.1822 252.9317 15.08857653 18652,6917.826,95.436,540.623,538.76,0.0
54810.0,STARLINK-5408,PAYLOAD,2023-04-05 03:38:08,15.08827112,0.0001412,53.2171,145.5872,88.3113,271.8041,-7.3079e-06,-4.04e-06,0.0,0 STARLINK-5408,1 54810U 22175BE  23095.15148747 -.00000404  00000-0 -73079-5 0  9992,2 54810  53.2171 145.5872 0001412  88.3113 271.8041 15.08827112 16570,6917.92,95.438,540.762,538.808,0.0
54810.0,STARLINK-5408,PAYLOAD,2023-04-05 09:59:40,15.08837034,0.0001254,53.2168,144.3971,102.359,257.7543,-6.0465e-05,-1.25e-05,0.0,0 STARLINK-5408,1 54810U 22175BE  23095.41644350 -.00001250  00000-0 -60465-4 0  9996,2 54810  53.2168 144.3971 0001254 102.3590 257.7543 15.08837034 16612,6917.889,95.438,540.622,538.887,0.0
54810.0,STARLINK-5408,PAYLOAD,2023-04-05 14:45:49,15.08841234,0.0001336,53.2177,143.5063,87.6935,272.421,-3.2328e-05,-8.02e-06,0.0,0 STARLINK-5408,1 54810U 22175BE  23095.61516057 -.00000802  00000-0 -32328-4 0  9999,2 54810  53.2177 143.5063 0001336  87.6935 272.4210 15.08841234 18809,6917.877,95.437,540.666,538.817,0.0
54810.0,STARLINK-5408,PAYLOAD,2023-04-06 09:50:27,15.08841929,0.0001341,53.2172,139.936,102.6406,257.4736,-4.9218e-05,-1.071e-05,0.0,0 STARLINK-5408,1 54810U 22175BE  23096.41004038 -.00001071  00000-0 -49218-4 0  9994,2 54810  53.2172 139.9360 0001341 102.6406 257.4736 15.08841929 18920,6917.874,95.437,540.667,538.812,0.0
54810.0,STARLINK-5408,PAYLOAD,2023-04-06 14:36:36,15.08846081,0.0001372,53.2173,139.0428,105.7977,254.3167,-1.4029e-05,-5.11e-06,0.0,0 STARLINK-5408,1 54810U 22175BE  23096.60875576 -.00000511  00000-0 -14029-4 0  9998,2 54810  53.2173 139.0428 0001372 105.7977 254.3167 15.08846081 16799,6917.862,95.437,540.676,538.778,0.0
54810.0,STARLINK-5408,PAYLOAD,2023-04-07 11:16:37,15.08835973,0.0001226,53.2178,135.178,96.3048,263.8083,1.2051e-05,-9.6e-07,0.0,0 STARLINK-5408,1 54810U 22175BE  23097.46988399 -.00000096  00000-0  12051-4 0  9991,2 54810  53.2178 135.1780 0001226  96.3048 263.8083 15.08835973 16929,6917.893,95.438,540.606,538.91,0.0
54810.0,STARLINK-5408,PAYLOAD,2023-04-07 12:52:00,15.08837947,0.0001196,53.2178,134.8805,95.6412,264.4717,2.7646e-05,1.52e-06,0.0,0 STARLINK-5408,1 54810U 22175BE  23097.53612225  .00000152  00000-0  27646-4 0  9999,2 54810  53.2178 134.8805 0001196  95.6412 264.4717 15.08837947 19091,6917.887,95.438,540.579,538.924,0.0
